{
    "links": {
        "self": "http://www.neowsapp.com/rest/v1/neo/3836279?api_key=iIulBulltgU6a56xZRHN4H3l9WmuAYTsLGpBGhQ2"
    },
    "id": "3836279",
    "neo_reference_id": "3836279",
    "name": "(2018 WP)",
    "designation": "2018 WP",
    "nasa_jpl_url": "http://ssd.jpl.nasa.gov/sbdb.cgi?sstr=3836279",
    "absolute_magnitude_h": 20.5,
    "estimated_diameter": {
        "kilometers": {
            "estimated_diameter_min": 0.2111324448,
            "estimated_diameter_max": 0.4721064988
        },
        "meters": {
            "estimated_diameter_min": 211.1324447897,
            "estimated_diameter_max": 472.1064988055
        },
        "miles": {
            "estimated_diameter_min": 0.1311915784,
            "estimated_diameter_max": 0.2933532873
        },
        "feet": {
            "estimated_diameter_min": 692.6917701639,
            "estimated_diameter_max": 1548.9058855411
        }
    },
    "is_potentially_hazardous_asteroid": false,
    "close_approach_data": [
        {
            "close_approach_date": "2018-10-21",
            "close_approach_date_full": "2018-Oct-21 12:17",
            "epoch_date_close_approach": 1540124220000,
            "relative_velocity": {
                "kilometers_per_second": "19.0782440652",
                "kilometers_per_hour": "68681.6786347913",
                "miles_per_hour": "42676.1241494902"
            },
            "miss_distance": {
                "astronomical": "0.3382454299",
                "lunar": "131.5774722311",
                "kilometers": "50600795.850274313",
                "miles": "31441876.5621709994"
            },
            "orbiting_body": "Earth"
        },
        {
            "close_approach_date": "2088-09-11",
            "close_approach_date_full": "2088-Sep-11 04:32",
            "epoch_date_close_approach": 3745715520000,
            "relative_velocity": {
                "kilometers_per_second": "22.0138941236",
                "kilometers_per_hour": "79250.0188449038",
                "miles_per_hour": "49242.8797650459"
            },
            "miss_distance": {
                "astronomical": "0.0080410373",
                "lunar": "3.1279635097",
                "kilometers": "1202922.052670551",
                "miles": "747461.1032975638"
            },
            "orbiting_body": "Mars"
        },
        {
            "close_approach_date": "2176-03-28",
            "close_approach_date_full": "2176-Mar-28 23:26",
            "epoch_date_close_approach": 6508337160000,
            "relative_velocity": {
                "kilometers_per_second": "34.8032006025",
                "kilometers_per_hour": "125291.5221689269",
                "miles_per_hour": "77851.2794276868"
            },
            "miss_distance": {
                "astronomical": "0.2994374285",
                "lunar": "116.4811596865",
                "kilometers": "44795201.501877295",
                "miles": "27834447.512784871"
            },
            "orbiting_body": "Earth"
        }
    ],
    "orbital_data": {
        "orbit_id": "12",
        "orbit_determination_date": "2019-01-19 07:33:41",
        "first_observation_date": "2018-11-17",
        "last_observation_date": "2018-12-13",
        "data_arc_in_days": 26,
        "observations_used": 60,
        "orbit_uncertainty": "7",
        "minimum_orbit_intersection": ".0709193",
        "jupiter_tisserand_invariant": "2.850",
        "epoch_osculation": "2459000.5",
        "eccentricity": ".8346502528899545",
        "semi_major_axis": "2.463920827935191",
        "inclination": "13.08348201103243",
        "ascending_node_longitude": "62.88248999594045",
        "orbital_period": "1412.662933464507",
        "perihelion_distance": ".4074086857982576",
        "perihelion_argument": "234.2107064696641",
        "aphelion_distance": "4.520432970072124",
        "perihelion_time": "2458368.055599495925",
        "mean_anomaly": "161.1707781013904",
        "mean_motion": ".2548378608031518",
        "equinox": "J2000",
        "orbit_class": {
            "orbit_class_type": "APO",
            "orbit_class_description": "Near-Earth asteroid orbits which cross the Earth’s orbit similar to that of 1862 Apollo",
            "orbit_class_range": "a (semi-major axis) > 1.0 AU; q (perihelion) < 1.017 AU"
        }
    },
    "is_sentry_object": false
}